NORAD_CAT_ID,OBJECT_NAME,OBJECT_TYPE,EPOCH,MEAN_MOTION,ECCENTRICITY,INCLINATION,RA_OF_ASC_NODE,ARG_OF_PERICENTER,MEAN_ANOMALY,BSTAR,MEAN_MOTION_DOT,MEAN_MOTION_DDOT,TLE_LINE0,TLE_LINE1,TLE_LINE2,SEMIMAJOR_AXIS,PERIOD,APOGEE,PERIGEE,DECAYED
52137.0,STARLINK-3733,PAYLOAD,2022-05-25 22:00:00,15.66542261,0.000129,53.2174,169.0362,55.2071,201.1027,-0.0073078999999999,-0.00714057,0.0,0 STARLINK-3733,1 52137U 22029BB  22145.91667824 -.00714057  00000-0 -73079-2 0  9994,2 52137  53.2174 169.0362 0001290  55.2071 201.1027 15.66542261  1306,6746.944,91.922,369.679,367.939,0.0
52137.0,STARLINK-3733,PAYLOAD,2022-05-26 04:33:59,15.66996253,0.0001893,53.2126,167.6779,295.0159,65.0661,-0.0032751,-0.00341272,0.0,0 STARLINK-3733,1 52137U 22029BB  22146.19027114 -.00341272  00000-0 -32751-2 0  9994,2 52137  53.2126 167.6779 0001893 295.0159  65.0661 15.66996253 11956,6745.641,91.896,368.783,366.229,0.0
52137.0,STARLINK-3733,PAYLOAD,2022-05-26 12:00:00,15.65649264,0.0001162,53.2177,166.1857,68.5396,238.4471,-0.0075651,-0.00712999,0.0,0 STARLINK-3733,1 52137U 22029BB  22146.50001157 -.00712999  00000-0 -75651-2 0  9992,2 52137  53.2177 166.1857 0001162  68.5396 238.4471 15.65649264 12006,6749.509,91.975,372.158,370.59,0.0
52137.0,STARLINK-3733,PAYLOAD,2022-05-26 13:45:28,15.66396055,3.17e-05,53.2123,165.8049,54.3237,305.781,-0.0034409,-0.00349469,0.0,0 STARLINK-3733,1 52137U 22029BB  22146.57324807 -.00349469  00000-0 -34409-2 0  9993,2 52137  53.2123 165.8049 0000317  54.3237 305.7810 15.66396055 12029,6747.364000000001,91.931,369.443,369.015,0.0
52137.0,STARLINK-3733,PAYLOAD,2022-05-26 22:00:00,15.65013295,0.0001324,53.2173,164.1481,51.2339,85.0892,-0.0077923,-0.0071566,0.0,0 STARLINK-3733,1 52137U 22029BB  22146.91667824 -.00715660  00000-0 -77923-2 0  9998,2 52137  53.2173 164.1481 0001324  51.2339  85.0892 15.65013295  1302,6751.3380000000025,92.012,374.096,372.309,0.0
52137.0,STARLINK-3733,PAYLOAD,2022-05-27 14:00:01,15.64610328,0.0001613,53.21100000000001,160.882,56.4107,237.3473,0.00030087,0.00029192,0.0,0 STARLINK-3733,1 52137U 22029BB  22147.58334491  .00029192  00000-0  30087-3 0  9990,2 52137  53.2110 160.8820 0001613  56.4107 237.3473 15.64610328 12177,6752.496999999999,92.036,375.451,373.273,0.0
52137.0,STARLINK-3733,PAYLOAD,2022-05-27 22:00:01,15.63482347,0.0001154,53.2173,159.27100000000004,52.8964,317.9907,-0.0082638,-0.00714126,0.0,0 STARLINK-3733,1 52137U 22029BB  22147.91668981 -.00714126  00000-0 -82638-2 0  9999,2 52137  53.2173 159.2710 0001154  52.8964 317.9907 15.63482347 12227,6755.744000000002,92.102,378.389,376.829,0.0
52137.0,STARLINK-3733,PAYLOAD,2022-05-28 04:05:35,15.64085773,0.0001233,53.2112,158.0139,44.0175,316.0939,-0.0031745,-0.00295942,0.0,0 STARLINK-3733,1 52137U 22029BB  22148.17054753 -.00295942  00000-0 -31745-2 0  9997,2 52137  53.2112 158.0139 0001233  44.0175 316.0939 15.64085773 12269,6754.005999999999,92.067,376.704,375.039,0.0
52137.0,STARLINK-3733,PAYLOAD,2022-05-28 14:00:01,15.62464888,0.0001242,53.2173,156.0277,66.8094,97.2788,-0.0086476,-0.00717604,0.0,0 STARLINK-3733,1 52137U 22029BB  22148.58334491 -.00717604  00000-0 -86476-2 0  9997,2 52137  53.2173 156.0277 0001242  66.8094  97.2788 15.62464888 12333,6758.677,92.162,381.381,379.702,0.0
52137.0,STARLINK-3733,PAYLOAD,2022-05-28 22:00:00,15.61953173,0.0001321,53.2174,154.405,61.287,178.5179,-0.0087812999999999,-0.0071452,0.0,0 STARLINK-3733,1 52137U 22029BB  22148.91667824 -.00714520  00000-0 -87813-2 0  9993,2 52137  53.2174 154.4050 0001321  61.2870 178.5179 15.61953173  1305,6760.153,92.192,382.911,381.125,0.0
52137.0,STARLINK-3733,PAYLOAD,2022-05-29 04:39:31,15.62494358,0.0001481,53.2127,153.036,86.8635,273.255,-0.0033262,-0.00291418,0.0,0 STARLINK-3733,1 52137U 22029BB  22149.19411491 -.00291418  00000-0 -33262-2 0  9996,2 52137  53.2127 153.0360 0001481  86.8635 273.2550 15.62494358 12428,6758.592,92.16,381.458,379.456,0.0
52137.0,STARLINK-3733,PAYLOAD,2022-05-29 14:00:01,15.60934232,0.0001113,53.2171,151.1692,58.9733,330.4214,-0.0091463,-0.00715163,0.0,0 STARLINK-3733,1 52137U 22029BB  22149.58334491 -.00715163  00000-0 -91463-2 0  9998,2 52137  53.2171 151.1692 0001113  58.9733 330.4214 15.60934232 12482,6763.094,92.252,385.712,384.206,0.0
52137.0,STARLINK-3733,PAYLOAD,2022-05-29 22:00:00,15.60423977,0.0001281999999999,53.2173,149.5504,53.8939,49.379,-0.0093418,-0.00716113,0.0,0 STARLINK-3733,1 52137U 22029BB  22149.91667824 -.00716113  00000-0 -93418-2 0  9992,2 52137  53.2173 149.5504 0001282  53.8939  49.3790 15.60423977  1309,6764.568,92.283,387.301,385.566,0.0
52137.0,STARLINK-3733,PAYLOAD,2022-05-30 03:42:37,15.61072373,0.0003161,53.2124,148.3756,352.23900000000015,7.8575,-0.0034603,-0.00287108,0.0,0 STARLINK-3733,1 52137U 22029BB  22150.15460270 -.00287108  00000-0 -34603-2 0  9994,2 52137  53.2124 148.3756 0003161 352.2390   7.8575 15.61072373 12578,6762.695,92.244,386.698,382.423,0.0
52137.0,STARLINK-3733,PAYLOAD,2022-05-30 12:56:11,15.60529948,0.0001103,53.212,146.5131,81.2452,278.8687,-0.00419,-0.003381,0.0,0 STARLINK-3733,1 52137U 22029BB  22150.53902646 -.00338100  00000-0 -41900-2 0  9991,2 52137  53.2120 146.5131 0001103  81.2452 278.8687 15.60529948 12638,6764.262,92.276,386.87300000000016,385.381,0.0
52137.0,STARLINK-3733,PAYLOAD,2022-05-30 14:00:01,15.59405347,0.0001245,53.2171,146.3217,70.8031,178.3832,-0.0097386,-0.00717694,0.0,0 STARLINK-3733,1 52137U 22029BB  22150.58334491 -.00717694  00000-0 -97386-2 0  9991,2 52137  53.2171 146.3217 0001245  70.8031 178.3832 15.59405347  1303,6767.514,92.343,390.222,388.536,0.0
52137.0,STARLINK-3733,PAYLOAD,2022-05-30 20:00:01,15.59019869,0.0001349,53.2173,145.1101,59.46100000000001,153.8131,-0.0097935,-0.00711731,0.0,0 STARLINK-3733,1 52137U 22029BB  22150.83334491 -.00711731  00000-0 -97935-2 0  9995,2 52137  53.2173 145.1101 0001349  59.4610 153.8131 15.59019869 12688,6768.629,92.366,391.408,389.581,0.0
52137.0,STARLINK-3733,PAYLOAD,2022-05-30 22:00:00,15.58892139,0.0001197,53.2173,144.7067,60.8348,260.3918,-0.0098481,-0.0071215,0.0,0 STARLINK-3733,1 52137U 22029BB  22150.91667824 -.00712150  00000-0 -98481-2 0  9996,2 52137  53.2173 144.7067 0001197  60.8348 260.3918 15.58892139  1301,6768.999,92.373,391.674,390.054,0.0
52137.0,STARLINK-3733,PAYLOAD,2022-05-31 05:52:14,15.59646445,6.77e-05,53.2127,143.1071,52.5856,307.5219,-0.0028329,-0.00224243,0.0,0 STARLINK-3733,1 52137U 22029BB  22151.24461556 -.00224243  00000-0 -28329-2 0  9992,2 52137  53.2127 143.1071 0000677  52.5856 307.5219 15.59646445 12759,6766.816999999999,92.329,389.14,388.223,0.0
52137.0,STARLINK-3733,PAYLOAD,2022-05-31 22:00:00,15.57364626,0.0001379,53.2174,139.8742,59.1331,114.5305,-0.010488,-0.00715475,0.0,0 STARLINK-3733,1 52137U 22029BB  22151.91667824 -.00715475  00000-0 -10488-1 0  9990,2 52137  53.2174 139.8742 0001379  59.1331 114.5305 15.57364626 12858,6773.425,92.464,396.224,394.356,0.0
52137.0,STARLINK-3733,PAYLOAD,2022-06-01 20:00:01,15.55959883,0.0001278,53.2172,135.4542,61.0202,212.5342,-0.010987,-0.00711415,0.0,0 STARLINK-3733,1 52137U 22029BB  22152.83334491 -.00711415  00000-0 -10987-1 0  9997,2 52137  53.2172 135.4542 0001278  61.0202 212.5342 15.55959883  1304,6777.501,92.547,400.232,398.5,0.0
52137.0,STARLINK-3733,PAYLOAD,2022-06-03 04:46:35,15.55073893,0.0002532,53.2132,128.874,47.195,312.9275,-0.0029199,-0.00195489,0.0,0 STARLINK-3733,1 52137U 22029BB  22154.19901895 -.00195489  00000-0 -29199-2 0  9999,2 52137  53.2132 128.8740 0002532  47.1950 312.9275 15.55073893 13205,6780.075,92.6,403.657,400.223,0.0
52137.0,STARLINK-3733,PAYLOAD,2022-06-03 07:52:22,15.54515676,0.0002758,53.2135,128.2584,88.2768,271.856,-0.0038308,-0.00249458,0.0,0 STARLINK-3733,1 52137U 22029BB  22154.32804319 -.00249458  00000-0 -38308-2 0  9995,2 52137  53.2135 128.2584 0002758  88.2768 271.8560 15.54515676 13222,6781.698,92.633,405.4330000000001,401.692,0.0
52137.0,STARLINK-3733,PAYLOAD,2022-06-03 14:02:09,15.54722869,3.53e-05,53.2133,127.0187,95.0147,265.0905,-0.0027231,-0.00180302,0.0,0 STARLINK-3733,1 52137U 22029BB  22154.58483445 -.00180302  00000-0 -27231-2 0  9991,2 52137  53.2133 127.0187 0000353  95.0147 265.0905 15.54722869 13268,6781.095,92.621,403.2,402.721,0.0
52137.0,STARLINK-3733,PAYLOAD,2022-06-04 03:55:48,15.54231898,0.0001641999999999,53.2134,124.2363,223.7212,136.36700000000002,-0.002446,-0.00159553,0.0,0 STARLINK-3733,1 52137U 22029BB  22155.16375472 -.00159553  00000-0 -24460-2 0  9991,2 52137  53.2134 124.2363 0001642 223.7212 136.3670 15.54231898 13355,6782.523,92.65,405.502,403.275,0.0
52137.0,STARLINK-3733,PAYLOAD,2022-06-05 22:00:00,15.49886075,0.000133,53.2175,115.8748,57.2609,15.9064,-5.256e-06,-7.4999999999999985e-06,0.0,0 STARLINK-3733,1 52137U 22029BB  22156.91667824 -.00000750  00000-0 -52560-5 0  9999,2 52137  53.2175 115.8748 0001330  57.2609  15.9064 15.49886075 13623,6795.196,92.91,417.965,416.157,0.0
52137.0,STARLINK-3733,PAYLOAD,2022-06-06 04:00:00,15.49810254,0.0001548,53.2149,114.6724,62.2409,326.6025,0.001743,0.00099476,0.0,0 STARLINK-3733,1 52137U 22029BB  22157.16667824  .00099476  00000-0  17430-2 0  9992,2 52137  53.2149 114.6724 0001548  62.2409 326.6025 15.49810254 13669,6795.418000000002,92.915,418.335,416.231,0.0
52137.0,STARLINK-3733,PAYLOAD,2022-06-06 14:00:01,15.49913292,0.0001364,53.2156,112.679,59.8178,135.1183,-0.00043407,-0.00025033,0.0,0 STARLINK-3733,1 52137U 22029BB  22157.58334491 -.00025033  00000-0 -43407-3 0  9993,2 52137  53.2156 112.6790 0001364  59.8178 135.1183 15.49913292  1301,6795.116,92.908,417.908,416.055,0.0
52137.0,STARLINK-3733,PAYLOAD,2022-06-06 22:00:00,15.49924881,0.0001347,53.2166,111.0885,67.8668,188.0091,0.00014064,7.549e-05,0.0,0 STARLINK-3733,1 52137U 22029BB  22157.91667824  .00007549  00000-0  14064-3 0  9996,2 52137  53.2166 111.0885 0001347  67.8668 188.0091 15.49924881 13780,6795.083000000001,92.908,417.86300000000006,416.032,0.0
